{"features": [{"geometry": {"coordinates": [22.2678246, 60.4525332], "type": "Point"}, "id": 60951737, "properties": {"amenity": "bank", "name": "Nordea"}, "type": "Feature"}, {"geometry": {"coordinates": [22.281978, 60.4520055], "type": "Point"}, "id": 257970755, "properties": {"amenity": "bank", "name": "Liedon S\u00e4\u00e4st\u00f6pankki Turku H\u00e4meenkatu", "operator": "Liedon S\u00e4\u00e4st\u00f6pankki", "url": "www.liedonsp.fi/"}, "type": "Feature"}, {"geometry": {"coordinates": [22.323757, 60.4460973], "type": "Point"}, "id": 258332125, "properties": {"amenity": "bank", "name": "S-Pankki Prisma It\u00e4harju", "operator": "S-Pankki", "website": "http://www.s-pankki.fi/"}, "type": "Feature"}, {"geometry": {"coordinates": [22.2585197, 60.4371582], "type": "Point"}, "id": 262282776, "properties": {"amenity": "bank"}, "type": "Feature"}, {"geometry": {"coordinates": [22.2760215, 60.4438116], "type": "Point"}, "id": 265610358, "properties": {"amenity": "bank", "name": "Liedon s\u00e4\u00e4st\u00f6pankki"}, "type": "Feature"}, {"geometry": {"coordinates": [22.2581482, 60.4516356], "type": "Point"}, "id": 292894792, "properties": {"addr:city": "Turku", "addr:country": "FI", "amenity": "bank", "atm": "yes", "name": "Nordea"}, "type": "Feature"}, {"geometry": {"coordinates": [22.2674247, 60.4527163], "type": "Point"}, "id": 301262626, "properties": {"amenity": "bank", "name": "Aktia"}, "type": "Feature"}, {"geometry": {"coordinates": [22.264231, 60.4499418], "type": "Point"}, "id": 308872168, "properties": {"amenity": "bank", "name": "\u00c5landsbanken", "url": "http://www.alandsbanken.fi/"}, "type": "Feature"}, {"geometry": {"coordinates": [22.9253849, 60.7793508], "type": "Point"}, "id": 351794260, "properties": {"amenity": "bank", "atm": "no", "name": "Osuuspankki"}, "type": "Feature"}, {"geometry": {"coordinates": [23.439254, 59.9765627], "type": "Point"}, "id": 357366194, "properties": {"amenity": "bank", "atm": "yes", "operator": "Andelsbanken", "operator:fi": "Osuuspankki"}, "type": "Feature"}, {"geometry": {"coordinates": [22.9646304, 59.8245821], "type": "Point"}, "id": 357366205, "properties": {"amenity": "bank", "atm": "yes"}, "type": "Feature"}, {"geometry": {"coordinates": [23.437322, 59.975266], "type": "Point"}, "id": 410631051, "properties": {"amenity": "bank", "atm": "yes", "name": "Nordea", "operator": "Nordea"}, "type": "Feature"}, {"geometry": {"coordinates": [22.0258366, 60.4678789], "type": "Point"}, "id": 467003049, "properties": {"addr:city": "Naantali", "addr:country": "FI", "amenity": "bank", "name": "Nordea", "source": "survey"}, "type": "Feature"}, {"geometry": {"coordinates": [22.2866957, 60.4530987], "type": "Point"}, "id": 661267642, "properties": {"amenity": "bank", "atm": "yes", "name": "Osuuspankki", "operator": "Osuuspankki"}, "type": "Feature"}, {"geometry": {"coordinates": [22.2860664, 60.4528951], "type": "Point"}, "id": 661267653, "properties": {"amenity": "bank", "name": "Handelsbanken", "operator": "Handelsbanken"}, "type": "Feature"}, {"geometry": {"coordinates": [22.2840486, 60.4526788], "type": "Point"}, "id": 661267697, "properties": {"addr:housenumber": "5", "addr:street": "H\u00e4meenkatu", "amenity": "bank", "name": "Nordea", "operator": "Nordea Turku-H\u00e4meenkatu", "url": "http://www.nordea.fi/"}, "type": "Feature"}, {"geometry": {"coordinates": [22.3018406, 60.3017632], "type": "Point"}, "id": 747065538, "properties": {"amenity": "bank", "atm": "yes", "int_name": "Osuuspankki", "name": "Andelsbanken", "name:fi": "Osuuspankki", "name:sv": "Andelsbanken"}, "type": "Feature"}, {"geometry": {"coordinates": [22.3017308, 60.2996586], "type": "Point"}, "id": 747065539, "properties": {"amenity": "bank", "atm": "no", "int_name": "Nordea", "name": "Nordea"}, "type": "Feature"}, {"geometry": {"coordinates": [22.3035011, 60.3008652], "type": "Point"}, "id": 747065641, "properties": {"amenity": "bank", "atm": "no", "int_name": "Aktia", "name": "Aktia"}, "type": "Feature"}, {"geometry": {"coordinates": [22.268462, 60.4543432], "type": "Point"}, "id": 847750102, "properties": {"amenity": "bank", "name": "Turun Seudun Osuuspankki"}, "type": "Feature"}, {"geometry": {"coordinates": [23.2772648, 60.4362224], "type": "Point"}, "id": 875830542, "properties": {"addr:city": "Salo", "addr:country": "FI", "addr:housenumber": "1023 C", "addr:postcode": "25190", "addr:street": "Inkereentie", "amenity": "bank", "atm": "yes", "name": "Osuuspankki Kantrisalo"}, "type": "Feature"}, {"geometry": {"coordinates": [22.6399257, 60.7614141], "type": "Point"}, "id": 1071642530, "properties": {"amenity": "bank", "name": "P\u00f6yty\u00e4n Osuuspankki"}, "type": "Feature"}, {"geometry": {"coordinates": [23.4843449, 60.8038235], "type": "Point"}, "id": 1142603036, "properties": {"amenity": "bank"}, "type": "Feature"}, {"geometry": {"coordinates": [23.436222, 59.974292], "type": "Point"}, "id": 1408422719, "properties": {"amenity": "bank", "name": "Aktia"}, "type": "Feature"}, {"geometry": {"coordinates": [22.9870517, 60.4897457], "type": "Point"}, "id": 1562729182, "properties": {"addr:housenumber": "15", "addr:street": "Kauppatie", "amenity": "bank", "name": "Vaskion Osuuspankki"}, "type": "Feature"}, {"geometry": {"coordinates": [22.6035305, 60.7186812], "type": "Point"}, "id": 1710245445, "properties": {"amenity": "bank", "name": "POP-Pankki"}, "type": "Feature"}, {"geometry": {"coordinates": [22.6032834, 60.7182719], "type": "Point"}, "id": 1710245477, "properties": {"amenity": "bank", "name": "Osuuspankki"}, "type": "Feature"}, {"geometry": {"coordinates": [22.5174884, 60.4246939], "type": "Point"}, "id": 1744077519, "properties": {"amenity": "bank"}, "type": "Feature"}, {"geometry": {"coordinates": [22.5089799, 60.0203142], "type": "Point"}, "id": 1977809018, "properties": {"amenity": "bank", "name": "Nordea"}, "type": "Feature"}, {"geometry": {"coordinates": [22.5098387, 60.0200784], "type": "Point"}, "id": 1977809019, "properties": {"amenity": "bank", "name": "Andelsbanken/Osuuspankki"}, "type": "Feature"}, {"geometry": {"coordinates": [21.5645183, 60.1616521], "type": "Point"}, "id": 2122172753, "properties": {"amenity": "bank"}, "type": "Feature"}, {"geometry": {"coordinates": [23.2820967, 60.8034095], "type": "Point"}, "id": 2677127088, "properties": {"amenity": "bank", "name": "Osuuspankki"}, "type": "Feature"}, {"geometry": {"coordinates": [22.3833363, 60.593199], "type": "Point"}, "id": 3071986117, "properties": {"amenity": "bank", "atm": "no", "name": "Osuuspankki"}, "type": "Feature"}, {"geometry": {"coordinates": [22.2706102, 60.4518039], "type": "Point"}, "id": 3219113171, "properties": {"amenity": "bank"}, "type": "Feature"}, {"geometry": {"coordinates": [22.2650108, 60.4521955], "type": "Point"}, "id": 3219150631, "properties": {"amenity": "bank", "name": "Liedon S\u00e4\u00e4st\u00f6pankki"}, "type": "Feature"}, {"geometry": {"coordinates": [22.2647018, 60.4514655], "type": "Point"}, "id": 3231742512, "properties": {"amenity": "bank", "name": "Danske Bank"}, "type": "Feature"}, {"geometry": {"coordinates": [22.2662307, 60.4526786], "type": "Point"}, "id": 3231742513, "properties": {"amenity": "bank", "name": "Handelsbanken"}, "type": "Feature"}, {"geometry": {"coordinates": [22.5163722, 60.4246017], "type": "Point"}, "id": 3544072646, "properties": {"amenity": "bank"}, "type": "Feature"}, {"geometry": {"coordinates": [22.095991, 60.5705877], "type": "Point"}, "id": 3662040329, "properties": {"amenity": "bank", "name": "Osuuspankki"}, "type": "Feature"}, {"geometry": {"coordinates": [22.9671403, 59.8255208], "type": "Point"}, "id": 3674149737, "properties": {"amenity": "bank", "atm": "yes", "name": "Nordea"}, "type": "Feature"}, {"geometry": {"coordinates": [22.1653493, 60.4858505], "type": "Point"}, "id": 3679089045, "properties": {"addr:city": "Raisio", "addr:country": "FI", "addr:housenumber": "7", "addr:postcode": "21200", "addr:street": "Raisiontori", "amenity": "bank", "atm": "no", "name": "Nordea", "opening_hours": "Mo-Fr 10:00-16:30"}, "type": "Feature"}, {"geometry": {"coordinates": [22.1654833, 60.4866029], "type": "Point"}, "id": 4151477959, "properties": {"amenity": "bank", "name": "OP"}, "type": "Feature"}, {"geometry": {"coordinates": [22.1642229, 60.4858553], "type": "Point"}, "id": 4152561198, "properties": {"amenity": "bank", "name": "S\u00e4\u00e4st\u00f6pankki"}, "type": "Feature"}, {"geometry": {"coordinates": [22.167404, 60.4861249], "type": "Point"}, "id": 4152561247, "properties": {"amenity": "bank", "name": "Handelsbanken"}, "type": "Feature"}, {"geometry": {"coordinates": [21.4132873, 60.8001894], "type": "Point"}, "id": 4371767290, "properties": {"amenity": "bank", "name": "Kalannin S\u00e4\u00e4st\u00f6pankki", "operator": "S\u00e4\u00e4st\u00f6pankki"}, "type": "Feature"}, {"geometry": {"coordinates": [21.4084997, 60.7996835], "type": "Point"}, "id": 4557799978, "properties": {"amenity": "bank", "name": "Nordea"}, "type": "Feature"}], "type": "FeatureCollection"}