{"features": [{"geometry": {"coordinates": [22.0166566, 60.4696753], "type": "Point"}, "id": 26984816, "properties": {"name": "Naantalin matkailu", "tourism": "information"}, "type": "Feature"}, {"geometry": {"coordinates": [22.0244574, 60.4674957], "type": "Point"}, "id": 26985624, "properties": {"tourism": "information"}, "type": "Feature"}, {"geometry": {"coordinates": [22.2679456, 60.4490554], "type": "Point"}, "id": 29838654, "properties": {"tourism": "information"}, "type": "Feature"}, {"geometry": {"coordinates": [21.4390901, 60.2882649], "type": "Point"}, "id": 280484139, "properties": {"information": "board", "man_made": "pier", "source": "survey", "tourism": "information"}, "type": "Feature"}, {"geometry": {"coordinates": [21.4348716, 60.4852817], "type": "Point"}, "id": 281826595, "properties": {"information": "board", "tourism": "information"}, "type": "Feature"}, {"geometry": {"coordinates": [21.3936381, 60.4393158], "type": "Point"}, "id": 282029775, "properties": {"information": "board", "tourism": "information"}, "type": "Feature"}, {"geometry": {"coordinates": [21.3717583, 60.3816658], "type": "Point"}, "id": 282042746, "properties": {"information": "board", "man_made": "pier", "tourism": "information"}, "type": "Feature"}, {"geometry": {"coordinates": [23.1318447, 60.3829128], "type": "Point"}, "id": 330315618, "properties": {"information": "office", "name": "Sininen talo", "tourism": "information"}, "type": "Feature"}, {"geometry": {"coordinates": [23.1365732, 60.3802985], "type": "Point"}, "id": 330967260, "properties": {"information": "map", "name": "Urheilupuisto", "tourism": "information"}, "type": "Feature"}, {"geometry": {"coordinates": [22.3051364, 60.4651469], "type": "Point"}, "id": 440198250, "properties": {"information": "board", "name": "Hallistenkoski", "name:fi": "Hallistenkoski", "name:sv": "Halisforsen", "tourism": "information"}, "type": "Feature"}, {"geometry": {"coordinates": [23.4798762, 59.9866275], "type": "Point"}, "id": 443411079, "properties": {"source": "survey", "tourism": "information"}, "type": "Feature"}, {"geometry": {"coordinates": [22.004764, 60.4730801], "type": "Point"}, "id": 466963586, "properties": {"name": "Poliisiasema", "tourism": "information"}, "type": "Feature"}, {"geometry": {"coordinates": [22.0057865, 60.4727142], "type": "Point"}, "id": 466980314, "properties": {"tourism": "information"}, "type": "Feature"}, {"geometry": {"coordinates": [22.0030857, 60.5650204], "type": "Point"}, "id": 518989830, "properties": {"information": "map", "tourism": "information"}, "type": "Feature"}, {"geometry": {"coordinates": [22.2541407, 60.4540356], "type": "Point"}, "id": 669866548, "properties": {"information": "map", "map_size": "city", "map_type": "street", "tourism": "information"}, "type": "Feature"}, {"geometry": {"coordinates": [22.3336206, 60.4620707], "type": "Point"}, "id": 678855226, "properties": {"information": "board", "tourism": "information"}, "type": "Feature"}, {"geometry": {"coordinates": [23.2113782, 60.408518], "type": "Point"}, "id": 742413486, "properties": {"information": "map", "name": "Halikko", "tourism": "information"}, "type": "Feature"}, {"geometry": {"coordinates": [22.0506927, 60.4685518], "type": "Point"}, "id": 772470966, "properties": {"board_type": "nature", "information": "board", "name": "Luolalanj\u00e4rvi", "tourism": "information"}, "type": "Feature"}, {"geometry": {"coordinates": [23.298336, 60.0594613], "type": "Point"}, "id": 821274731, "properties": {"tourism": "information"}, "type": "Feature"}, {"geometry": {"coordinates": [21.9114152, 60.1939421], "type": "Point"}, "id": 827182932, "properties": {"information": "office", "tourism": "information"}, "type": "Feature"}, {"geometry": {"coordinates": [21.9172447, 60.1910203], "type": "Point"}, "id": 827182953, "properties": {"information": "citymap", "tourism": "information"}, "type": "Feature"}, {"geometry": {"coordinates": [22.9692389, 59.8233216], "type": "Point"}, "id": 833668199, "properties": {"name": "Matkailutoimisto", "name:fi": "Hangon kaupungin matkailutoimisto", "name:sv": "Hang\u00f6 stads turistbyr\u00e5", "tourism": "information"}, "type": "Feature"}, {"geometry": {"coordinates": [21.9646655, 60.2408198], "type": "Point"}, "id": 888196243, "properties": {"board_type": "nature", "information": "board", "name": "3 Tervalepikko", "tourism": "information"}, "type": "Feature"}, {"geometry": {"coordinates": [21.9658634, 60.2425842], "type": "Point"}, "id": 888411880, "properties": {"board_type": "notice", "information": "board", "name": "Sj\u00e4l\u00f6", "name:fi": "Seili", "tourism": "information"}, "type": "Feature"}, {"geometry": {"coordinates": [21.9623295, 60.237247], "type": "Point"}, "id": 888411906, "properties": {"information": "board", "name": "Fogdeby", "ref": "7", "tourism": "information"}, "type": "Feature"}, {"geometry": {"coordinates": [21.9644332, 60.2377227], "type": "Point"}, "id": 888418913, "properties": {"information": "board", "ref": "6", "tourism": "information"}, "type": "Feature"}, {"geometry": {"coordinates": [21.9582554, 60.2363757], "type": "Point"}, "id": 888475244, "properties": {"board_type": "wildlife", "information": "board", "name": "Kololinnut", "ref": "8", "tourism": "information"}, "type": "Feature"}, {"geometry": {"coordinates": [21.9639027, 60.2386722], "type": "Point"}, "id": 888478409, "properties": {"board_type": "plants", "information": "board", "name": "Ruikon ja niityn el\u00e4m\u00e4", "ref": "5", "tourism": "information"}, "type": "Feature"}, {"geometry": {"coordinates": [22.9588228, 60.8181409], "type": "Point"}, "id": 927010670, "properties": {"information": "map", "tourism": "information"}, "type": "Feature"}, {"geometry": {"coordinates": [22.3411046, 60.4658429], "type": "Point"}, "id": 1026564981, "properties": {"information": "board", "source": "Bing;Bing", "tourism": "information"}, "type": "Feature"}, {"geometry": {"coordinates": [23.5706445, 59.8294254], "type": "Point"}, "id": 1113869600, "properties": {"amenity": "cafe", "description": "Guest Harbour", "leisure": "marina", "name": "Jussar\u00f6 vierassatama", "shop": "souvenir", "tourism": "information"}, "type": "Feature"}, {"geometry": {"coordinates": [23.435826, 59.974556], "type": "Point"}, "id": 1408416122, "properties": {"tourism": "information"}, "type": "Feature"}, {"geometry": {"coordinates": [22.9672638, 59.8205888], "type": "Point"}, "id": 1860581083, "properties": {"information": "office", "tourism": "information"}, "type": "Feature"}, {"geometry": {"coordinates": [22.3049516, 60.4466047], "type": "Point"}, "id": 1979158797, "properties": {"name": "Turku City Info", "tourism": "information"}, "type": "Feature"}, {"geometry": {"coordinates": [22.5069946, 60.0195585], "type": "Point"}, "id": 2084978946, "properties": {"information": "map", "name": "Taalintehdas", "tourism": "information"}, "type": "Feature"}, {"geometry": {"coordinates": [22.4716993, 60.2039927], "type": "Point"}, "id": 2087537860, "properties": {"name": "Mj\u00f6sund Kartta/map", "tourism": "information"}, "type": "Feature"}, {"geometry": {"coordinates": [21.6792828, 59.9091238], "type": "Point"}, "id": 2111237376, "properties": {"board_type": "board", "information": "board", "tourism": "information"}, "type": "Feature"}, {"geometry": {"coordinates": [23.0854537, 60.3586338], "type": "Point"}, "id": 2288523466, "properties": {"board_type": "history", "information": "board", "name": "Viitankruunu", "tourism": "information"}, "type": "Feature"}, {"geometry": {"coordinates": [21.5612502, 60.1626323], "type": "Point"}, "id": 2380480659, "properties": {"information": "map", "tourism": "information"}, "type": "Feature"}, {"geometry": {"coordinates": [22.1253167, 60.4745939], "type": "Point"}, "id": 2431342958, "properties": {"tourism": "information"}, "type": "Feature"}, {"geometry": {"coordinates": [22.1180396, 60.4656444], "type": "Point"}, "id": 2431342961, "properties": {"tourism": "information"}, "type": "Feature"}, {"geometry": {"coordinates": [22.1127799, 60.4659029], "type": "Point"}, "id": 2431342965, "properties": {"description": "Uikkupolusta kertova infotaulu", "name": "Uikkupolun alku", "tourism": "information"}, "type": "Feature"}, {"geometry": {"coordinates": [22.1122179, 60.4671563], "type": "Point"}, "id": 2431342967, "properties": {"tourism": "information"}, "type": "Feature"}, {"geometry": {"coordinates": [22.1255968, 60.4679959], "type": "Point"}, "id": 2431342970, "properties": {"tourism": "information"}, "type": "Feature"}, {"geometry": {"coordinates": [22.1326376, 60.4722963], "type": "Point"}, "id": 2431342975, "properties": {"tourism": "information"}, "type": "Feature"}, {"geometry": {"coordinates": [22.1122716, 60.4681743], "type": "Point"}, "id": 2431342980, "properties": {"tourism": "information"}, "type": "Feature"}, {"geometry": {"coordinates": [22.1194076, 60.466166], "type": "Point"}, "id": 2431342984, "properties": {"tourism": "information"}, "type": "Feature"}, {"geometry": {"coordinates": [22.1242959, 60.4728158], "type": "Point"}, "id": 2431342987, "properties": {"tourism": "information"}, "type": "Feature"}, {"geometry": {"coordinates": [22.1232176, 60.4666447], "type": "Point"}, "id": 2431342988, "properties": {"tourism": "information"}, "type": "Feature"}, {"geometry": {"coordinates": [22.1245722, 60.473301], "type": "Point"}, "id": 2431342989, "properties": {"tourism": "information"}, "type": "Feature"}, {"geometry": {"coordinates": [22.1249664, 60.4677473], "type": "Point"}, "id": 2431342990, "properties": {"tourism": "information"}, "type": "Feature"}, {"geometry": {"coordinates": [22.1191435, 60.4752955], "type": "Point"}, "id": 2431342991, "properties": {"tourism": "information"}, "type": "Feature"}, {"geometry": {"coordinates": [22.1156538, 60.4733552], "type": "Point"}, "id": 2431342992, "properties": {"tourism": "information"}, "type": "Feature"}, {"geometry": {"coordinates": [22.1244246, 60.4688169], "type": "Point"}, "id": 2431342993, "properties": {"tourism": "information"}, "type": "Feature"}, {"geometry": {"coordinates": [22.1133257, 60.4715944], "type": "Point"}, "id": 2431342994, "properties": {"tourism": "information"}, "type": "Feature"}, {"geometry": {"coordinates": [22.112462, 60.4697172], "type": "Point"}, "id": 2431342996, "properties": {"tourism": "information"}, "type": "Feature"}, {"geometry": {"coordinates": [23.0981712, 60.3883633], "type": "Point"}, "id": 2450813254, "properties": {"board_type": "nature", "information": "board", "tourism": "information"}, "type": "Feature"}, {"geometry": {"coordinates": [23.5760882, 60.736862], "type": "Point"}, "id": 2948998649, "properties": {"information": "map", "tourism": "information"}, "type": "Feature"}, {"geometry": {"coordinates": [21.4081068, 60.8009495], "type": "Point"}, "id": 2949004739, "properties": {"information": "office", "opening_hours": "Mo-Fr 09:00-16:00", "tourism": "information"}, "type": "Feature"}, {"geometry": {"coordinates": [23.5420857, 60.1296589], "type": "Point"}, "id": 2949065370, "properties": {"information": "map", "tourism": "information"}, "type": "Feature"}, {"geometry": {"coordinates": [23.5440577, 60.1305181], "type": "Point"}, "id": 2949065372, "properties": {"information": "map", "tourism": "information"}, "type": "Feature"}, {"geometry": {"coordinates": [22.3600682, 60.349424], "type": "Point"}, "id": 2960312249, "properties": {"tourism": "information"}, "type": "Feature"}, {"geometry": {"coordinates": [22.0946678, 60.2196866], "type": "Point"}, "id": 2961577760, "properties": {"tourism": "information"}, "type": "Feature"}, {"geometry": {"coordinates": [22.325214, 60.4355519], "type": "Point"}, "id": 3203859844, "properties": {"tourism": "information"}, "type": "Feature"}, {"geometry": {"coordinates": [22.9251516, 59.8271908], "type": "Point"}, "id": 3400615150, "properties": {"board_type": "board", "information": "board", "tourism": "information"}, "type": "Feature"}, {"geometry": {"coordinates": [22.3711947, 60.5873297], "type": "Point"}, "id": 3412620125, "properties": {"tourism": "information"}, "type": "Feature"}, {"geometry": {"coordinates": [22.2131863, 60.5302613], "type": "Point"}, "id": 3494810784, "properties": {"tourism": "information"}, "type": "Feature"}, {"geometry": {"coordinates": [22.2114804, 60.5304012], "type": "Point"}, "id": 3494810786, "properties": {"tourism": "information"}, "type": "Feature"}, {"geometry": {"coordinates": [23.2079609, 59.8439309], "type": "Point"}, "id": 3617908045, "properties": {"board_type": "history;nature", "information": "board", "name": "Tv\u00e4rminne", "tourism": "information"}, "type": "Feature"}, {"geometry": {"coordinates": [21.5362809, 60.0663493], "type": "Point"}, "id": 3802384324, "properties": {"information": "board", "tourism": "information"}, "type": "Feature"}, {"geometry": {"coordinates": [22.1584815, 60.4928685], "type": "Point"}, "id": 4147192722, "properties": {"information": "board", "name": "Raision luontopolut", "tourism": "information"}, "type": "Feature"}, {"geometry": {"coordinates": [22.1554994, 60.4920332], "type": "Point"}, "id": 4147195951, "properties": {"name": "Kerttulan ulkoilualue", "tourism": "information"}, "type": "Feature"}, {"geometry": {"coordinates": [21.5605181, 60.1629105], "type": "Point"}, "id": 4336084371, "properties": {"tourism": "information"}, "type": "Feature"}, {"geometry": {"coordinates": [23.3727541, 60.0111914], "type": "Point"}, "id": 4347177392, "properties": {"information": "board", "name": "Tourist Information", "tourism": "information"}, "type": "Feature"}, {"geometry": {"coordinates": [23.5421348, 59.9178123], "type": "Point"}, "id": 4463947364, "properties": {"information": "board", "tourism": "information"}, "type": "Feature"}], "type": "FeatureCollection"}